NORAD_CAT_ID,OBJECT_NAME,OBJECT_TYPE,EPOCH,MEAN_MOTION,ECCENTRICITY,INCLINATION,RA_OF_ASC_NODE,ARG_OF_PERICENTER,MEAN_ANOMALY,BSTAR,MEAN_MOTION_DOT,MEAN_MOTION_DDOT,TLE_LINE0,TLE_LINE1,TLE_LINE2,SEMIMAJOR_AXIS,PERIOD,APOGEE,PERIGEE,DECAYED
54800.0,STARLINK-5428,PAYLOAD,2024-07-08 21:15:55,15.08841511,0.0001307,53.2165,246.9187,89.4482,270.666,7.6591e-05,9.31e-06,0.0,0 STARLINK-5428,1 54800U 22175AU  24190.88605893  .00000931  00000-0  76591-4 0  9992,2 54800  53.2165 246.9187 0001307  89.4482 270.6660 15.08841511 88157,6917.876,95.437,540.645,538.837,0.0
54800.0,STARLINK-5428,PAYLOAD,2024-07-09 09:59:00,15.08842773,0.0001327,53.216,244.5406,88.754,271.3604,7.5211e-05,9.09e-06,0.0,0 STARLINK-5428,1 54800U 22175AU  24191.41597763  .00000909  00000-0  75211-4 0  9991,2 54800  53.2160 244.5406 0001327  88.7540 271.3604 15.08842773 88235,6917.872,95.437,540.655,538.819,0.0
54800.0,STARLINK-5428,PAYLOAD,2024-07-10 03:28:15,15.08837748,0.0001306,53.2153,241.2706,83.6332,276.4808,-1.8331e-05,-5.8e-06,0.0,0 STARLINK-5428,1 54800U 22175AU  24192.14462397 -.00000580  00000-0 -18331-4 0  9993,2 54800  53.2153 241.2706 0001306  83.6332 276.4808 15.08837748 86195,6917.887,95.438,540.656,538.849,0.0
54800.0,STARLINK-5428,PAYLOAD,2024-07-10 13:00:34,15.0883801,0.0001311,53.2164,239.4849,91.775,268.3392,-1.218e-05,-4.82e-06,0.0,0 STARLINK-5428,1 54800U 22175AU  24192.54206341 -.00000482  00000-0 -12180-4 0  9999,2 54800  53.2164 239.4849 0001311  91.7750 268.3392 15.08838010 88401,6917.886,95.438,540.658,538.845,0.0
54800.0,STARLINK-5428,PAYLOAD,2024-07-11 09:40:34,15.08842332,0.0001406,53.2171,235.6201,94.3945,265.7207,2.6315e-05,1.31e-06,0.0,0 STARLINK-5428,1 54800U 22175AU  24193.40317958  .00000131  00000-0  26315-4 0  9996,2 54800  53.2171 235.6201 0001406  94.3945 265.7207 15.08842332 88531,6917.873,95.437,540.711,538.766,0.0
54800.0,STARLINK-5428,PAYLOAD,2024-07-12 09:31:21,15.08837524,0.0001322,53.2162,231.1599,91.686,268.4284,6.6743e-05,7.74e-06,0.0,0 STARLINK-5428,1 54800U 22175AU  24194.39678239  .00000774  00000-0  66743-4 0  9999,2 54800  53.2162 231.1599 0001322  91.6860 268.4284 15.08837524 88683,6917.888,95.438,540.668,538.838,0.0
54800.0,STARLINK-5428,PAYLOAD,2024-07-13 10:57:32,15.08839251,0.0001348,53.2162,226.4021,87.8278,272.2868,1.2009e-05,-9.7e-07,0.0,0 STARLINK-5428,1 54800U 22175AU  24195.45662525 -.00000097  00000-0  12009-4 0  9993,2 54800  53.2162 226.4021 0001348  87.8278 272.2868 15.08839251 86697,6917.883,95.438,540.68,538.815,0.0
54800.0,STARLINK-5428,PAYLOAD,2024-07-13 18:54:28,15.08837905,0.0001325,53.2162,224.9149,85.8052,274.3092,1.7723e-05,-6e-08,0.0,0 STARLINK-5428,1 54800U 22175AU  24195.78782623 -.00000006  00000-0  17723-4 0  9999,2 54800  53.2162 224.9149 0001325  85.8052 274.3092 15.08837905 88894,6917.887,95.438,540.668,538.835,0.0
54800.0,STARLINK-5428,PAYLOAD,2024-07-14 09:12:56,15.08836504,0.0001334,53.2159,222.2385,84.9241,275.1903,1.5884e-05,-3.5e-07,0.0,0 STARLINK-5428,1 54800U 22175AU  24196.38398872 -.00000035  00000-0  15884-4 0  9993,2 54800  53.2159 222.2385 0001334  84.9241 275.1903 15.08836504 88987,6917.891,95.438,540.679,538.833,0.0
54800.0,STARLINK-5428,PAYLOAD,2024-07-14 18:45:15,15.08838239,0.0001333,53.2159,220.4543,85.8686,274.2458,3.2724e-05,2.33e-06,0.0,0 STARLINK-5428,1 54800U 22175AU  24196.78142772  .00000233  00000-0  32724-4 0  9994,2 54800  53.2159 220.4543 0001333  85.8686 274.2458 15.08838239 86895,6917.886,95.438,540.673,538.829,0.0
54800.0,STARLINK-5428,PAYLOAD,2024-07-15 10:39:06,15.08841103,0.0001338,53.2161,217.4804,87.16,272.9545,5.5793e-05,6e-06,0.0,0 STARLINK-5428,1 54800U 22175AU  24197.44382638  .00000600  00000-0  55793-4 0  9994,2 54800  53.2161 217.4804 0001338  87.1600 272.9545 15.08841103 89147,6917.877,95.437,540.668,538.816,0.0
54800.0,STARLINK-5428,PAYLOAD,2024-07-15 18:36:02,15.08836705,0.0001326,53.2158,215.9934,85.0636,275.0508,1.7091e-05,-1.6e-07,0.0,0 STARLINK-5428,1 54800U 22175AU  24197.77503078 -.00000016  00000-0  17091-4 0  9994,2 54800  53.2158 215.9934 0001326  85.0636 275.0508 15.08836705 89193,6917.89,95.438,540.673,538.838,0.0
54800.0,STARLINK-5428,PAYLOAD,2024-07-16 05:43:44,15.08836226,0.000131,53.2155,213.9116,85.1508,274.9634,4.6692e-05,4.55e-06,0.0,0 STARLINK-5428,1 54800U 22175AU  24198.23871060  .00000455  00000-0  46692-4 0  9990,2 54800  53.2155 213.9116 0001310  85.1508 274.9634 15.08836226 87118,6917.892,95.438,540.663,538.851,0.0
54800.0,STARLINK-5428,PAYLOAD,2024-07-16 07:19:07,15.08836484,0.0001304,53.2154,213.6141,85.4872,274.6269,4.8912e-05,4.91e-06,0.0,0 STARLINK-5428,1 54800U 22175AU  24198.30495048  .00000491  00000-0  48912-4 0  9993,2 54800  53.2154 213.6141 0001304  85.4872 274.6269 15.08836484 89278,6917.891,95.438,540.658,538.854,0.0
54800.0,STARLINK-5428,PAYLOAD,2024-07-17 10:20:40,15.08844266,0.0001304,53.2153,208.5587,85.0078,275.1063,5.4316e-05,5.77e-06,0.0,0 STARLINK-5428,1 54800U 22175AU  24199.43102540  .00000577  00000-0  54316-4 0  9990,2 54800  53.2153 208.5587 0001304  85.0078 275.1063 15.08844266 87293,6917.867,95.437,540.634,538.83,0.0
54800.0,STARLINK-5428,PAYLOAD,2024-07-18 10:11:27,15.08841006,0.0001399,53.2163,204.0965,93.1734,266.9419,4.2643e-05,3.91e-06,0.0,0 STARLINK-5428,1 54800U 22175AU  24200.42462799  .00000391  00000-0  42643-4 0  9991,2 54800  53.2163 204.0965 0001399  93.1734 266.9419 15.08841006 87447,6917.877,95.437,540.71,538.775,0.0
54800.0,STARLINK-5428,PAYLOAD,2024-07-19 06:51:28,15.0884109,0.0001353,53.216,200.2309,91.3529,268.7618,2.3554e-05,8.7e-07,0.0,0 STARLINK-5428,1 54800U 22175AU  24201.28574880  .00000087  00000-0  23554-4 0  9993,2 54800  53.2160 200.2309 0001353  91.3529 268.7618 15.08841090 89723,6917.877,95.437,540.678,538.806,0.0
54800.0,STARLINK-5428,PAYLOAD,2024-07-19 16:23:47,15.08839716,0.0001343,53.216,198.4469,90.4282,269.6864,8.8884e-06,-1.46e-06,0.0,0 STARLINK-5428,1 54800U 22175AU  24201.68318936 -.00000146  00000-0  88884-5 0  9990,2 54800  53.2160 198.4469 0001343  90.4282 269.6864 15.08839716 87636,6917.881,95.438,540.675,538.817,0.0
54800.0,STARLINK-5428,PAYLOAD,2024-07-20 06:42:15,15.08838002,0.0001438,53.217,195.7732,93.9732,266.1424,3.694e-05,3e-06,0.0,0 STARLINK-5428,1 54800U 22175AU  24202.27935087  .00000300  00000-0  36940-4 0  9994,2 54800  53.2170 195.7732 0001438  93.9732 266.1424 15.08838002 89872,6917.886,95.438,540.746,538.757,0.0
54800.0,STARLINK-5428,PAYLOAD,2024-07-20 16:14:34,15.08836239,0.0001425,53.2169,193.9892,93.4828,266.6327,2.2171e-05,6.5e-07,0.0,0 STARLINK-5428,1 54800U 22175AU  24202.67679346  .00000065  00000-0  22171-4 0  9990,2 54800  53.2169 193.9892 0001425  93.4828 266.6327 15.08836239 89938,6917.892,95.438,540.743,538.771,0.0
54800.0,STARLINK-5428,PAYLOAD,2024-07-21 04:57:39,15.08837967,0.0001382,53.2163,191.6108,96.4804,263.6346,5.0284e-05,5.12e-06,0.0,0 STARLINK-5428,1 54800U 22175AU  24203.20671212  .00000512  00000-0  50284-4 0  9997,2 54800  53.2163 191.6108 0001382  96.4804 263.6346 15.08837967 87863,6917.887,95.438,540.708,538.796,0.0
54800.0,STARLINK-5428,PAYLOAD,2024-07-21 08:08:25,15.0884098,0.000141,53.2165,191.0163,96.3141,263.8011,7.3644e-05,8.84e-06,0.0,0 STARLINK-5428,1 54800U 22175AU  24203.33918964  .00000884  00000-0  73644-4 0  9996,2 54800  53.2165 191.0163 0001410  96.3141 263.8011 15.08840980 90038,6917.877,95.437,540.718,538.767,0.0
54800.0,STARLINK-5428,PAYLOAD,2024-07-22 04:48:27,15.08833878,0.0001431,53.2165,187.1499,89.9376,270.178,7.8406e-06,-1.63e-06,0.0,0 STARLINK-5428,1 54800U 22175AU  24204.20031870 -.00000163  00000-0  78406-5 0  9998,2 54800  53.2165 187.1499 0001431  89.9376 270.1780 15.08833878 88014,6917.899,95.438,540.754,538.774,0.0
54800.0,STARLINK-5428,PAYLOAD,2024-07-22 07:59:13,15.0883764,0.0001304,53.2156,186.5538,86.1782,273.9359,3.2561e-05,2.3e-06,0.0,0 STARLINK-5428,1 54800U 22175AU  24204.33279573  .00000230  00000-0  32561-4 0  9991,2 54800  53.2156 186.5538 0001304  86.1782 273.9359 15.08837640 90185,6917.888,95.438,540.655,538.851,0.0
54800.0,STARLINK-5428,PAYLOAD,2024-07-22 22:17:41,15.08839266,0.0001606,53.2173,183.8758,80.402,279.7154,4.8892e-05,4.9e-06,0.0,0 STARLINK-5428,1 54800U 22175AU  24204.92895596  .00000490  00000-0  48892-4 0  9997,2 54800  53.2173 183.8758 0001606  80.4020 279.7154 15.08839266 90278,6917.883,95.438,540.859,538.637,0.0
54800.0,STARLINK-5428,PAYLOAD,2024-07-23 04:39:13,15.08844661,0.0001598,53.217,182.6887,77.0019,283.1152,7.0664e-05,8.37e-06,0.0,0 STARLINK-5428,1 54800U 22175AU  24205.19391189  .00000837  00000-0  70664-4 0  9993,2 54800  53.2170 182.6887 0001598  77.0019 283.1152 15.08844661 88162,6917.866,95.437,540.837,538.626,0.0
54800.0,STARLINK-5428,PAYLOAD,2024-07-23 22:08:28,15.0883694,0.0001364,53.2158,179.4172,92.3831,267.7317,1.8371e-05,4e-08,0.0,0 STARLINK-5428,1 54800U 22175AU  24205.92255770  .00000004  00000-0  18371-4 0  9992,2 54800  53.2158 179.4172 0001364  92.3831 267.7317 15.08836940 90426,6917.89,95.438,540.698,538.811,0.0
54800.0,STARLINK-5428,PAYLOAD,2024-07-24 04:30:02,15.08831178,0.0001492,53.216,178.2283,95.1661,264.9501,-1.0986e-05,-4.63e-06,0.0,0 STARLINK-5428,1 54800U 22175AU  24206.18752331 -.00000463  00000-0 -10986-4 0  9991,2 54800  53.2160 178.2283 0001492  95.1661 264.9501 15.08831178 88310,6917.907,95.438,540.805,538.74,0.0
54800.0,STARLINK-5428,PAYLOAD,2024-07-24 07:40:48,15.08833738,0.000138,53.2151,177.6317,98.8569,261.2579,-1.1139e-05,-4.65e-06,0.0,0 STARLINK-5428,1 54800U 22175AU  24206.32000166 -.00000465  00000-0 -11139-4 0  9992,2 54800  53.2151 177.6317 0001380  98.8569 261.2579 15.08833738 90484,6917.9,95.438,540.719,538.81,0.0
54800.0,STARLINK-5428,PAYLOAD,2024-07-25 04:20:48,15.08845366,0.0001363,53.2157,173.7653,105.6002,254.5141,1.1006e-05,-1.13e-06,0.0,0 STARLINK-5428,1 54800U 22175AU  24207.18111392 -.00000113  00000-0  11006-4 0  9993,2 54800  53.2157 173.7653 0001363 105.6002 254.5141 15.08845366 88465,6917.864,95.437,540.672,538.786,0.0
